{
  "type": "FeatureCollection",
  "features": [
    {
      "type": "Feature",
      "properties": {
        "norad_id": 67123,
        "name": "STARLINK-36151",
        "group": "last-30-days",
        "lat": 33.05786260297428,
        "lon": -53.74657500911998,
        "alt_km": 283.83605215674015,
        "timestamp": "2025-12-21T16:47:53.453587+00:00",
        "meta_object_name": "STARLINK-36151",
        "meta_object_id": "2025-299X",
        "meta_epoch": "2025-12-21T12:00:02.000160",
        "meta_mean_motion": 15.9579822,
        "meta_eccentricity": 0.0002278,
        "meta_inclination": 42.9999,
        "meta_ra_of_asc_node": 263.1995,
        "meta_arg_of_pericenter": 265.3531,
        "meta_mean_anomaly": 78.2145,
        "meta_ephemeris_type": 0,
        "meta_classification_type": "U",
        "meta_norad_cat_id": 67123,
        "meta_element_set_no": 999,
        "meta_rev_at_epoch": 222,
        "meta_bstar": -0.0037617,
        "meta_mean_motion_dot": -0.01578027,
        "meta_mean_motion_ddot": 0.00072333,
        "tle_line1": "1 67123U 25299X   25355.50002315 -.01578027  72333-3 -37617-2 0  9991",
        "tle_line2": "2 67123  42.9999 263.1995 0002278 265.3531  78.2145 15.95798220  2223"
      },
      "geometry": {
        "type": "Point",
        "coordinates": [
          -53.74657500911998,
          33.05786260297428
        ]
      }
    },
    {
      "type": "Feature",
      "properties": {
        "norad_id": 67124,
        "name": "STARLINK-36195",
        "group": "last-30-days",
        "lat": 35.080313621659805,
        "lon": -49.15095622196475,
        "alt_km": 283.0189486430145,
        "timestamp": "2025-12-21T16:47:53.453597+00:00",
        "meta_object_name": "STARLINK-36195",
        "meta_object_id": "2025-299Y",
        "meta_epoch": "2025-12-21T12:00:02.000160",
        "meta_mean_motion": 15.9602917,
        "meta_eccentricity": 0.0002356,
        "meta_inclination": 43,
        "meta_ra_of_asc_node": 263.1892,
        "meta_arg_of_pericenter": 263.9322,
        "meta_mean_anomaly": 83.7861,
        "meta_ephemeris_type": 0,
        "meta_classification_type": "U",
        "meta_norad_cat_id": 67124,
        "meta_element_set_no": 999,
        "meta_rev_at_epoch": 222,
        "meta_bstar": -0.0037602,
        "meta_mean_motion_dot": -0.0159716,
        "meta_mean_motion_ddot": 0.00074132,
        "tle_line1": "1 67124U 25299Y   25355.50002315 -.01597160  74132-3 -37602-2 0  9994",
        "tle_line2": "2 67124  43.0000 263.1892 0002356 263.9322  83.7861 15.96029170  2222"
      },
      "geometry": {
        "type": "Point",
        "coordinates": [
          -49.15095622196475,
          35.080313621659805
        ]
      }
    },
    {
      "type": "Feature",
      "properties": {
        "norad_id": 67125,
        "name": "STARLINK-36219",
        "group": "last-30-days",
        "lat": 35.67414298709807,
        "lon": -47.67341979784295,
        "alt_km": 282.6687793290903,
        "timestamp": "2025-12-21T16:47:53.453607+00:00",
        "meta_object_name": "STARLINK-36219",
        "meta_object_id": "2025-299Z",
        "meta_epoch": "2025-12-21T12:00:02.000160",
        "meta_mean_motion": 15.96102216,
        "meta_eccentricity": 0.0002295,
        "meta_inclination": 42.9997,
        "meta_ra_of_asc_node": 263.1855,
        "meta_arg_of_pericenter": 266.7651,
        "meta_mean_anomaly": 82.2453,
        "meta_ephemeris_type": 0,
        "meta_classification_type": "U",
        "meta_norad_cat_id": 67125,
        "meta_element_set_no": 999,
        "meta_rev_at_epoch": 222,
        "meta_bstar": -0.0037619,
        "meta_mean_motion_dot": -0.01604152,
        "meta_mean_motion_ddot": 0.00074787,
        "tle_line1": "1 67125U 25299Z   25355.50002315 -.01604152  74787-3 -37619-2 0  9999",
        "tle_line2": "2 67125  42.9997 263.1855 0002295 266.7651  82.2453 15.96102216  2227"
      },
      "geometry": {
        "type": "Point",
        "coordinates": [
          -47.67341979784295,
          35.67414298709807
        ]
      }
    },
    {
      "type": "Feature",
      "properties": {
        "norad_id": 67126,
        "name": "STARLINK-36223",
        "group": "last-30-days",
        "lat": 36.38707424234457,
        "lon": -45.80572766444815,
        "alt_km": 282.2870955426388,
        "timestamp": "2025-12-21T16:47:53.453617+00:00",
        "meta_object_name": "STARLINK-36223",
        "meta_object_id": "2025-299AA",
        "meta_epoch": "2025-12-21T12:00:02.000160",
        "meta_mean_motion": 15.96194171,
        "meta_eccentricity": 0.0002216,
        "meta_inclination": 42.9999,
        "meta_ra_of_asc_node": 263.1815,
        "meta_arg_of_pericenter": 266.4865,
        "meta_mean_anomaly": 84.1311,
        "meta_ephemeris_type": 0,
        "meta_classification_type": "U",
        "meta_norad_cat_id": 67126,
        "meta_element_set_no": 999,
        "meta_rev_at_epoch": 222,
        "meta_bstar": -0.0037626,
        "meta_mean_motion_dot": -0.01612411,
        "meta_mean_motion_ddot": 0.0007557,
        "tle_line1": "1 67126U 25299AA  25355.50002315 -.01612411  75570-3 -37626-2 0  9996",
        "tle_line2": "2 67126  42.9999 263.1815 0002216 266.4865  84.1311 15.96194171  2228"
      },
      "geometry": {
        "type": "Point",
        "coordinates": [
          -45.80572766444815,
          36.38707424234457
        ]
      }
    },
    {
      "type": "Feature",
      "properties": {
        "norad_id": 67127,
        "name": "STARLINK-36164",
        "group": "last-30-days",
        "lat": 36.99240091501902,
        "lon": -44.12628984661877,
        "alt_km": 282.05565409589417,
        "timestamp": "2025-12-21T16:47:53.453626+00:00",
        "meta_object_name": "STARLINK-36164",
        "meta_object_id": "2025-299AB",
        "meta_epoch": "2025-12-21T12:00:02.000160",
        "meta_mean_motion": 15.96272759,
        "meta_eccentricity": 0.0002291,
        "meta_inclination": 42.9998,
        "meta_ra_of_asc_node": 263.1779,
        "meta_arg_of_pericenter": 265.3968,
        "meta_mean_anomaly": 86.6429,
        "meta_ephemeris_type": 0,
        "meta_classification_type": "U",
        "meta_norad_cat_id": 67127,
        "meta_element_set_no": 999,
        "meta_rev_at_epoch": 222,
        "meta_bstar": -0.0037586,
        "meta_mean_motion_dot": -0.016176,
        "meta_mean_motion_ddot": 0.00076081,
        "tle_line1": "1 67127U 25299AB  25355.50002315 -.01617600  76081-3 -37586-2 0  9995",
        "tle_line2": "2 67127  42.9998 263.1779 0002291 265.3968  86.6429 15.96272759  2228"
      },
      "geometry": {
        "type": "Point",
        "coordinates": [
          -44.12628984661877,
          36.99240091501902
        ]
      }
    },
    {
      "type": "Feature",
      "properties": {
        "norad_id": 67128,
        "name": "STARLINK-35685",
        "group": "last-30-days",
        "lat": 38.637758421604126,
        "lon": -39.00664689575458,
        "alt_km": 281.30898505653386,
        "timestamp": "2025-12-21T16:47:53.453638+00:00",
        "meta_object_name": "STARLINK-35685",
        "meta_object_id": "2025-299AC",
        "meta_epoch": "2025-12-21T12:00:02.000160",
        "meta_mean_motion": 15.96423023,
        "meta_eccentricity": 0.0002271,
        "meta_inclination": 42.9997,
        "meta_ra_of_asc_node": 263.167,
        "meta_arg_of_pericenter": 264.146,
        "meta_mean_anomaly": 92.1414,
        "meta_ephemeris_type": 0,
        "meta_classification_type": "U",
        "meta_norad_cat_id": 67128,
        "meta_element_set_no": 999,
        "meta_rev_at_epoch": 222,
        "meta_bstar": -0.0034898,
        "meta_mean_motion_dot": -0.01515561,
        "meta_mean_motion_ddot": 0.00067583,
        "tle_line1": "1 67128U 25299AC  25355.50002315 -.01515561  67583-3 -34898-2 0  9999",
        "tle_line2": "2 67128  42.9997 263.1670 0002271 264.1460  92.1414 15.96423023  2228"
      },
      "geometry": {
        "type": "Point",
        "coordinates": [
          -39.00664689575458,
          38.637758421604126
        ]
      }
    },
    {
      "type": "Feature",
      "properties": {
        "norad_id": 67129,
        "name": "STARLINK-36214",
        "group": "last-30-days",
        "lat": 37.68943156257936,
        "lon": -42.06826576973639,
        "alt_km": 281.68305873193003,
        "timestamp": "2025-12-21T16:47:53.453648+00:00",
        "meta_object_name": "STARLINK-36214",
        "meta_object_id": "2025-299AD",
        "meta_epoch": "2025-12-21T12:00:02.000160",
        "meta_mean_motion": 15.96370713,
        "meta_eccentricity": 0.0002304,
        "meta_inclination": 42.9997,
        "meta_ra_of_asc_node": 263.1735,
        "meta_arg_of_pericenter": 267.6731,
        "meta_mean_anomaly": 86.0764,
        "meta_ephemeris_type": 0,
        "meta_classification_type": "U",
        "meta_norad_cat_id": 67129,
        "meta_element_set_no": 999,
        "meta_rev_at_epoch": 222,
        "meta_bstar": -0.0037609,
        "meta_mean_motion_dot": -0.01627155,
        "meta_mean_motion_ddot": 0.0007699,
        "tle_line1": "1 67129U 25299AD  25355.50002315 -.01627155  76990-3 -37609-2 0  9998",
        "tle_line2": "2 67129  42.9997 263.1735 0002304 267.6731  86.0764 15.96370713  2224"
      },
      "geometry": {
        "type": "Point",
        "coordinates": [
          -42.06826576973639,
          37.68943156257936
        ]
      }
    }
  ]
}